start=new Date('2022-05-19T00:00:00.000Z').valueOf();
sats=[{"OBJECT_TYPE":"PAYLOAD","SITE":"AFETR","ELEMENT_SET_NO":"999","MEAN_MOTION":"15.06398503","LAUNCH_DATE":"2020-08-07","APOAPSIS":"548.251","SEMIMAJOR_AXIS":"6925.353","REF_FRAME":"TEME","MEAN_MOTION_DOT":"0.00002580","PERIAPSIS":"546.185","GP_ID":"203903715","MEAN_ELEMENT_THEORY":"SGP4","FILE":"3452356","CENTER_NAME":"EARTH","NORAD_CAT_ID":"46082","RCS_SIZE":"LARGE","TIME_SYSTEM":"UTC","REV_AT_EPOCH":"9963","ARG_OF_PERICENTER":"65.8770","RA_OF_ASC_NODE":"221.5346","EPOCH":"2022-05-18T14:01:37.618752","ECCENTRICITY":"0.00014920","OBJECT_NAME":"STARLINK-1578","DECAY_DATE":null,"TLE_LINE2":"2 46082  53.0553 221.5346 0001492  65.8770 294.2375 15.06398503 99634","MEAN_MOTION_DDOT":"0.0000000000000","BSTAR":"0.00019205000000","INCLINATION":"53.0553","OBJECT_ID":"2020-055BH","CLASSIFICATION_TYPE":"U","MEAN_ANOMALY":"294.2375","PERIOD":"95.592","TLE_LINE1":"1 46082U 20055BH  22138.58446318  .00002580  00000-0  19205-3 0  9992","COUNTRY_CODE":"US","EPHEMERIS_TYPE":"0"},{"REV_AT_EPOCH":"9908","NORAD_CAT_ID":"46083","TIME_SYSTEM":"UTC","RCS_SIZE":"LARGE","CENTER_NAME":"EARTH","MEAN_ELEMENT_THEORY":"SGP4","FILE":"3451577","GP_ID":"203842014","MEAN_MOTION_DOT":"0.00001189","PERIAPSIS":"546.147","APOAPSIS":"548.339","LAUNCH_DATE":"2020-08-07","REF_FRAME":"TEME","SEMIMAJOR_AXIS":"6925.378","ELEMENT_SET_NO":"999","MEAN_MOTION":"15.06390389","OBJECT_TYPE":"PAYLOAD","SITE":"AFETR","EPHEMERIS_TYPE":"0","MEAN_ANOMALY":"298.8874","COUNTRY_CODE":"US","PERIOD":"95.593","TLE_LINE1":"1 46083U 20055BJ  22138.48863164  .00001189  00000-0  98758-4 0  9999","INCLINATION":"53.0548","CLASSIFICATION_TYPE":"U","OBJECT_ID":"2020-055BJ","BSTAR":"0.00009875800000","TLE_LINE2":"2 46083  53.0548 221.9504 0001583  61.2274 298.8874 15.06390389 99086","MEAN_MOTION_DDOT":"0.0000000000000","DECAY_DATE":null,"OBJECT_NAME":"STARLINK-1579","EPOCH":"2022-05-18T11:43:37.773696","ECCENTRICITY":"0.00015830","ARG_OF_PERICENTER":"61.2274","RA_OF_ASC_NODE":"221.9504"},{"PERIAPSIS":"546.057","MEAN_MOTION_DOT":"-0.00003779","GP_ID":"203912309","SEMIMAJOR_AXIS":"6925.418","REF_FRAME":"TEME","LAUNCH_DATE":"2020-08-18","APOAPSIS":"548.509","MEAN_MOTION":"15.06377422","ELEMENT_SET_NO":"999","SITE":"AFETR","OBJECT_TYPE":"PAYLOAD","REV_AT_EPOCH":"9740","RCS_SIZE":"LARGE","TIME_SYSTEM":"UTC","NORAD_CAT_ID":"46117","CENTER_NAME":"EARTH","FILE":"3452544","MEAN_ELEMENT_THEORY":"SGP4","MEAN_MOTION_DDOT":"0.0000000000000","TLE_LINE2":"2 46117  53.0546  59.4240 0001770  52.3858 307.7292 15.06377422 97401","OBJECT_NAME":"STARLINK-1585","DECAY_DATE":null,"ECCENTRICITY":"0.00017700","EPOCH":"2022-05-19T01:15:42.741792","RA_OF_ASC_NODE":"59.4240","ARG_OF_PERICENTER":"52.3858","EPHEMERIS_TYPE":"0","PERIOD":"95.594","TLE_LINE1":"1 46117U 20057A   22139.05257803 -.00003779  00000-0 -23505-3 0  9996","COUNTRY_CODE":"US","MEAN_ANOMALY":"307.7292","OBJECT_ID":"2020-057A","CLASSIFICATION_TYPE":"U","INCLINATION":"53.0546","BSTAR":"-0.00023505000000"},{"MEAN_MOTION_DDOT":"0.0000000000000","TLE_LINE2":"2 46118  53.0551  79.0821 0001673  44.8814 315.2310 15.06394741 97139","DECAY_DATE":null,"OBJECT_NAME":"STARLINK-1588","ECCENTRICITY":"0.00016730","EPOCH":"2022-05-19T03:04:30.292896","RA_OF_ASC_NODE":"79.0821","ARG_OF_PERICENTER":"44.8814","EPHEMERIS_TYPE":"0","COUNTRY_CODE":"US","TLE_LINE1":"1 46118U 20057B   22139.12812839  .00001082  00000-0  91559-4 0  9999","PERIOD":"95.592","MEAN_ANOMALY":"315.2310","CLASSIFICATION_TYPE":"U","OBJECT_ID":"2020-057B","INCLINATION":"53.0551","BSTAR":"0.00009155900000","GP_ID":"203917361","MEAN_MOTION_DOT":"0.00001082","PERIAPSIS":"546.071","REF_FRAME":"TEME","SEMIMAJOR_AXIS":"6925.365","APOAPSIS":"548.388","LAUNCH_DATE":"2020-08-18","MEAN_MOTION":"15.06394741","ELEMENT_SET_NO":"999","SITE":"AFETR","OBJECT_TYPE":"PAYLOAD","REV_AT_EPOCH":"9713","TIME_SYSTEM":"UTC","RCS_SIZE":"LARGE","NORAD_CAT_ID":"46118","CENTER_NAME":"EARTH","FILE":"3452738","MEAN_ELEMENT_THEORY":"SGP4"},{"REV_AT_EPOCH":"9713","TIME_SYSTEM":"UTC","RCS_SIZE":"LARGE","NORAD_CAT_ID":"46119","CENTER_NAME":"EARTH","FILE":"3452395","MEAN_ELEMENT_THEORY":"SGP4","GP_ID":"203909319","MEAN_MOTION_DOT":"0.00001515","PERIAPSIS":"545.970","REF_FRAME":"TEME","SEMIMAJOR_AXIS":"6925.354","LAUNCH_DATE":"2020-08-18","APOAPSIS":"548.468","MEAN_MOTION":"15.06398257","ELEMENT_SET_NO":"999","SITE":"AFETR","OBJECT_TYPE":"PAYLOAD","EPHEMERIS_TYPE":"0","COUNTRY_CODE":"US","PERIOD":"95.592","TLE_LINE1":"1 46119U 20057C   22139.11706668  .00001515  00000-0  12060-3 0  9991","MEAN_ANOMALY":"312.3931","CLASSIFICATION_TYPE":"U","OBJECT_ID":"2020-057C","INCLINATION":"53.0541","BSTAR":"0.00012060000000","MEAN_MOTION_DDOT":"0.0000000000000","TLE_LINE2":"2 46119  53.0541  79.1462 0001804  47.7211 312.3931 15.06398257 97133","DECAY_DATE":null,"OBJECT_NAME":"STARLINK-1593","ECCENTRICITY":"0.00018040","EPOCH":"2022-05-19T02:48:34.561152","RA_OF_ASC_NODE":"79.1462","ARG_OF_PERICENTER":"47.7211"},{"REV_AT_EPOCH":"9713","NORAD_CAT_ID":"46120","RCS_SIZE":"LARGE","TIME_SYSTEM":"UTC","CENTER_NAME":"EARTH","MEAN_ELEMENT_THEORY":"SGP4","FILE":"3452401","PERIAPSIS":"545.744","MEAN_MOTION_DOT":"0.00000410","GP_ID":"203909346","APOAPSIS":"548.712","LAUNCH_DATE":"2020-08-18","SEMIMAJOR_AXIS":"6925.363","REF_FRAME":"TEME","ELEMENT_SET_NO":"999","MEAN_MOTION":"15.06395258","OBJECT_TYPE":"PAYLOAD","SITE":"AFETR","EPHEMERIS_TYPE":"0","MEAN_ANOMALY":"310.7235","TLE_LINE1":"1 46120U 20057D   22139.10233045  .00000410  00000-0  46468-4 0  9999","PERIOD":"95.592","COUNTRY_CODE":"US","INCLINATION":"53.0567","OBJECT_ID":"2020-057D","CLASSIFICATION_TYPE":"U","BSTAR":"0.00004646800000","TLE_LINE2":"2 46120  53.0567  79.2128 0002143  49.3940 310.7235 15.06395258 97134","MEAN_MOTION_DDOT":"0.0000000000000","OBJECT_NAME":"STARLINK-1601","DECAY_DATE":null,"EPOCH":"2022-05-19T02:27:21.350880","ECCENTRICITY":"0.00021430","ARG_OF_PERICENTER":"49.3940","RA_OF_ASC_NODE":"79.2128"},{"TLE_LINE2":"2 46121  53.0563  63.2279 0001844  62.7841 297.3336 15.06394932 96619","MEAN_MOTION_DDOT":"0.0000000000000","OBJECT_NAME":"STARLINK-1602","DECAY_DATE":null,"EPOCH":"2022-05-18T05:00:13.334688","ECCENTRICITY":"0.00018440","ARG_OF_PERICENTER":"62.7841","RA_OF_ASC_NODE":"63.2279","EPHEMERIS_TYPE":"0","MEAN_ANOMALY":"297.3336","TLE_LINE1":"1 46121U 20057E   22138.20848767 -.00000854  00000-0 -38435-4 0  9992","PERIOD":"95.592","COUNTRY_CODE":"US","INCLINATION":"53.0563","OBJECT_ID":"2020-057E","CLASSIFICATION_TYPE":"U","BSTAR":"-0.00003843500000","MEAN_MOTION_DOT":"-0.00000854","PERIAPSIS":"545.952","GP_ID":"203870046","APOAPSIS":"548.506","LAUNCH_DATE":"2020-08-18","SEMIMAJOR_AXIS":"6925.364","REF_FRAME":"TEME","ELEMENT_SET_NO":"999","MEAN_MOTION":"15.06394932","OBJECT_TYPE":"PAYLOAD","SITE":"AFETR","REV_AT_EPOCH":"9661","NORAD_CAT_ID":"46121","RCS_SIZE":"LARGE","TIME_SYSTEM":"UTC","CENTER_NAME":"EARTH","MEAN_ELEMENT_THEORY":"SGP4","FILE":"3451871"},{"NORAD_CAT_ID":"46122","TIME_SYSTEM":"UTC","RCS_SIZE":"LARGE","REV_AT_EPOCH":"9755","MEAN_ELEMENT_THEORY":"SGP4","FILE":"3450761","CENTER_NAME":"EARTH","LAUNCH_DATE":"2020-08-18","APOAPSIS":"548.399","REF_FRAME":"TEME","SEMIMAJOR_AXIS":"6925.366","GP_ID":"203798395","PERIAPSIS":"546.063","MEAN_MOTION_DOT":"0.00000784","OBJECT_TYPE":"PAYLOAD","SITE":"AFETR","ELEMENT_SET_NO":"999","MEAN_MOTION":"15.06394263","MEAN_ANOMALY":"303.8612","COUNTRY_CODE":"US","PERIOD":"95.593","TLE_LINE1":"1 46122U 20057F   22138.15136029  .00000784  00000-0  71572-4 0  9997","EPHEMERIS_TYPE":"0","BSTAR":"0.00007157200000","INCLINATION":"53.0561","CLASSIFICATION_TYPE":"U","OBJECT_ID":"2020-057F","DECAY_DATE":null,"OBJECT_NAME":"STARLINK-1604","MEAN_MOTION_DDOT":"0.0000000000000","TLE_LINE2":"2 46122  53.0561  43.4641 0001687  56.2537 303.8612 15.06394263 97557","ARG_OF_PERICENTER":"56.2537","RA_OF_ASC_NODE":"43.4641","EPOCH":"2022-05-18T03:37:57.529056","ECCENTRICITY":"0.00016870"},{"REV_AT_EPOCH":"9769","NORAD_CAT_ID":"46123","RCS_SIZE":"LARGE","TIME_SYSTEM":"UTC","CENTER_NAME":"EARTH","MEAN_ELEMENT_THEORY":"SGP4","FILE":"3452399","MEAN_MOTION_DOT":"0.00001559","PERIAPSIS":"545.978","GP_ID":"203909037","APOAPSIS":"548.472","LAUNCH_DATE":"2020-08-18","SEMIMAJOR_AXIS":"6925.360","REF_FRAME":"TEME","ELEMENT_SET_NO":"999","MEAN_MOTION":"15.06396251","OBJECT_TYPE":"PAYLOAD","SITE":"AFETR","EPHEMERIS_TYPE":"0","MEAN_ANOMALY":"307.7235","PERIOD":"95.592","TLE_LINE1":"1 46123U 20057G   22139.13181989  .00001559  00000-0  12358-3 0  9999","COUNTRY_CODE":"US","INCLINATION":"53.0568","OBJECT_ID":"2020-057G","CLASSIFICATION_TYPE":"U","BSTAR":"0.00012358000000","TLE_LINE2":"2 46123  53.0568  39.0757 0001801  52.3918 307.7235 15.06396251 97690","MEAN_MOTION_DDOT":"0.0000000000000","OBJECT_NAME":"STARLINK-1605","DECAY_DATE":null,"EPOCH":"2022-05-19T03:09:49.238496","ECCENTRICITY":"0.00018010","ARG_OF_PERICENTER":"52.3918","RA_OF_ASC_NODE":"39.0757"},{"ELEMENT_SET_NO":"999","MEAN_MOTION":"15.06402861","OBJECT_TYPE":"PAYLOAD","SITE":"AFETR","GP_ID":"203798959","MEAN_MOTION_DOT":"0.00000906","PERIAPSIS":"546.149","APOAPSIS":"548.260","LAUNCH_DATE":"2020-08-18","REF_FRAME":"TEME","SEMIMAJOR_AXIS":"6925.340","CENTER_NAME":"EARTH","MEAN_ELEMENT_THEORY":"SGP4","FILE":"3450757","REV_AT_EPOCH":"9755","NORAD_CAT_ID":"46124","TIME_SYSTEM":"UTC","RCS_SIZE":"LARGE","EPOCH":"2022-05-18T03:27:20.391264","ECCENTRICITY":"0.00015240","ARG_OF_PERICENTER":"64.6140","RA_OF_ASC_NODE":"43.5124","TLE_LINE2":"2 46124  53.0544  43.5124 0001524  64.6140 295.5007 15.06402861 97559","MEAN_MOTION_DDOT":"0.0000000000000","DECAY_DATE":null,"OBJECT_NAME":"STARLINK-1614","INCLINATION":"53.0544","CLASSIFICATION_TYPE":"U","OBJECT_ID":"2020-057H","BSTAR":"0.00007968900000","EPHEMERIS_TYPE":"0","MEAN_ANOMALY":"295.5007","COUNTRY_CODE":"US","TLE_LINE1":"1 46124U 20057H   22138.14398601  .00000906  00000-0  79689-4 0  9997","PERIOD":"95.592"}];
